[{"OBJECT_NAME":"STARLINK-5726","OBJECT_ID":"2023-020AR","EPOCH":"2026-03-09T03:10:06.552192","MEAN_MOTION":15.02536254,"ECCENTRICITY":0.00016732,"INCLINATION":43.0058,"RA_OF_ASC_NODE":354.8477,"ARG_OF_PERICENTER":265.2776,"MEAN_ANOMALY":94.7876,"EPHEMERIS_TYPE":0,"CLASSIFICATION_TYPE":"U","NORAD_CAT_ID":55608,"ELEMENT_SET_NO":999,"REV_AT_EPOCH":16898,"BSTAR":0.00014968395,"MEAN_MOTION_DOT":1.819e-5,"MEAN_MOTION_DDOT":0},{"OBJECT_NAME":"PICO-02A021","OBJECT_ID":"2024-149BY","EPOCH":"2026-03-09T03:41:37.126752","MEAN_MOTION":15.02201963,"ECCENTRICITY":0.00041954,"INCLINATION":97.6823,"RA_OF_ASC_NODE":147.908,"ARG_OF_PERICENTER":9.5557,"MEAN_ANOMALY":350.5747,"EPHEMERIS_TYPE":0,"CLASSIFICATION_TYPE":"U","NORAD_CAT_ID":60538,"ELEMENT_SET_NO":999,"REV_AT_EPOCH":8471,"BSTAR":0.00064833457,"MEAN_MOTION_DOT":8.488e-5,"MEAN_MOTION_DDOT":0}]
